ONEWEB-0317             
1 49103U 21075AE  23269.84186806  .00000470  00000+0  12700-2 0  9997
2 49103  87.9071 188.3565 0001990  67.0110 293.1229 13.12446630104767
ONEWEB-0318             
1 49104U 21075AF  23270.17469236 -.00001611  00000+0 -41189-2 0  9990
2 49104  87.9227 173.1745 0001278  71.6609 288.4662 13.18694062107161
ONEWEB-0319             
1 49105U 21075AG  23269.86660925 -.00000049  00000+0 -16036-3 0  9991
2 49105  87.9250 203.4561 0001296  86.7504 273.3776 13.17646872103656
ONEWEB-0323             
1 49106U 21075AH  23269.83234029  .00000341  00000+0  91176-3 0  9992
2 49106  87.9072 188.3468 0001644  77.6098 282.5214 13.12443355104128
ONEWEB-0329             
1 49107U 21075AJ  23269.87293608 -.00000185  00000+0 -50872-3 0  9991
2 49107  87.9250 203.4579 0001670  73.8308 286.3007 13.17650777102640
ONEWEB-0330             
1 49108U 21075AK  23269.87504938  .00000022  00000+0  24399-4 0  9997
2 49108  87.9240 203.4713 0001709  67.7196 292.4117 13.17651896103677
ONEWEB-0292             
1 49186U 21083A   23269.74145677  .00000047  00000+0  93754-4 0  9997
2 49186  87.9063 158.1031 0001779  78.9835 281.1494 13.13471534100389
ONEWEB-0303             
1 49187U 21083B   23269.79108959 -.00000023  00000+0 -90102-4 0  9995
2 49187  87.9228 173.2535 0001596  81.8577 278.2736 13.18685556 98921
